{
  "norad_id": 53854,
  "name": "STARLINK-4800",
  "history": [
    {
      "epoch": "2026-03-28T14:26:41.346816Z",
      "apogee_km": 540.5666139150144,
      "perigee_km": 538.8828063747642,
      "latitude_deg": -1.9934327900794165e-06,
      "longitude_deg": 156.7617566889927,
      "height_km": 540.7477968283197,
      "semi_major_axis_km": 6917.861710144889,
      "eccentricity": 0.0001217,
      "inclination_deg": 53.2174,
      "raan_deg": 199.454,
      "arg_perigee_deg": 98.6874,
      "mean_anomaly_deg": 261.4256,
      "mean_motion_rev_day": 15.08846111
    }
  ]
}